STARLINK-32560          
1 61982U 24210Z   26068.62945189  .00027930  00000+0  10189-2 0  9992
2 61982  43.0062 179.9209 0003359 300.7869  59.2652 15.27631693 74871
COSMOS 2588             
1 64095U 25109A   26068.81179522  .00009169  00000+0  32611-3 0  9998
2 64095  72.9704  73.5401 0005019 308.6780  51.3966 15.29122656 44425
